[{"OBJECT_NAME":"SITRO-AIS 16","OBJECT_ID":"2024-199C","EPOCH":"2026-03-09T22:02:52.039104","MEAN_MOTION":14.97049887,"ECCENTRICITY":0.00080733,"INCLINATION":97.3322,"RA_OF_ASC_NODE":274.4213,"ARG_OF_PERICENTER":52.0818,"MEAN_ANOMALY":308.1134,"EPHEMERIS_TYPE":0,"CLASSIFICATION_TYPE":"U","NORAD_CAT_ID":61737,"ELEMENT_SET_NO":999,"REV_AT_EPOCH":11696,"BSTAR":0.00041232113,"MEAN_MOTION_DOT":4.701e-5,"MEAN_MOTION_DDOT":0},{"OBJECT_NAME":"STARLINK-34354","OBJECT_ID":"2025-123Z","EPOCH":"2026-03-09T17:12:26.174304","MEAN_MOTION":14.98333546,"ECCENTRICITY":0.0003151,"INCLINATION":70.0033,"RA_OF_ASC_NODE":194.3444,"ARG_OF_PERICENTER":262.0506,"MEAN_ANOMALY":98.0295,"EPHEMERIS_TYPE":0,"CLASSIFICATION_TYPE":"U","NORAD_CAT_ID":64314,"ELEMENT_SET_NO":999,"REV_AT_EPOCH":4162,"BSTAR":0.00017973123,"MEAN_MOTION_DOT":2.052e-5,"MEAN_MOTION_DDOT":0}]
